EUTELSAT 8 WEST B       
1 40875U 15039B   26004.10125645 -.00000064  00000+0  00000+0 0  9997
2 40875   0.0633 355.8064 0004128 286.9721 209.3933  1.00271744 38016
EUTELSAT 9B             
1 41310U 16005A   26004.10463646  .00000063  00000+0  00000+0 0  9990
2 41310   0.0510  67.5201 0004995 214.2551 228.5930  1.00272431 36474
EUTELSAT 65 WEST A      
1 41382U 16014A   26004.21106471 -.00000275  00000+0  00000+0 0  9997
2 41382   0.0677 315.8403 0002542 327.0909 191.6658  1.00272723 35892
EUTELSAT 117 WEST B     
1 41589U 16038B   26003.93699329 -.00000009  00000+0  00000+0 0  9994
2 41589   0.0096 153.1878 0000329 281.7825 248.9121  1.00268743 35011
EUTELSAT 172B           
1 42741U 17029B   26003.92295319 -.00000004  00000+0  00000+0 0  9991
2 42741   0.0305 117.6842 0000214 123.7971   6.3025  1.00271282 32086
EUTELSAT 7C             
1 44334U 19034B   26004.02753278  .00000050  00000+0  00000+0 0  9994
2 44334   0.0753 180.5124 0003603  92.0804 207.9285  1.00271484  5196
EUTELSAT 5 WEST B       
1 44624U 19067A   26004.10186313 -.00000041  00000+0  00000+0 0  9992
2 44624   0.0733 328.2039 0003455 314.8725 212.2938  1.00270960 22791
EUTELSAT KONNECT        
1 45027U 20005B   26004.10420314  .00000050  00000+0  00000+0 0  9995
2 45027   0.0676  92.7608 0001516 191.2068 224.4490  1.00267931 22694
